SAR-LUPE 2              
1 31797U 07030A   26160.20966806  .00033726  00000+0  62430-3 0  9997
2 31797  98.1021 263.6629 0007578 150.9207 209.2465 15.48927884 55706
SAPPHIRE                
1 39088U 13009C   26160.14463813  .00000101  00000+0  50208-4 0  9996
2 39088  98.4259 339.7917 0009974 273.4970  86.5075 14.35238273695422
PRAETORIAN SDA_602      
1 65565U 25203A   26160.07368409  .00000039  00000+0  24212-4 0  9997
2 65565  81.3036  18.2852 0005368 207.3647 152.7228 13.84342063 37570
PRAETORIAN SDA_603      
1 65566U 25203B   26160.09780721  .00000068  00000+0  50357-4 0  9996
2 65566  81.3042  18.1740 0008911 210.3695 149.6946 13.83904807 37589
PRAETORIAN SDA_604      
1 65567U 25203C   26160.11251171  .00000093  00000+0  73974-4 0  9990
2 65567  81.3058  18.5602 0004866 215.8807 144.2023 13.83046950 37569
PRAETORIAN SDA_605      
1 65568U 25203D   26160.08009863  .00000056  00000+0  40318-4 0  9991
2 65568  81.3024  18.2609 0007677 205.8388 154.2386 13.83433717 37578
PRAETORIAN SDA_606      
1 65569U 25203E   26160.06248922  .00000054  00000+0  38074-4 0  9995
2 65569  81.3059  18.4956 0005289 204.2999 155.7908 13.83406588 37563
PRAETORIAN SDA_607      
1 65570U 25203F   26160.07566569  .00000143  00000+0  11715-3 0  9999
2 65570  81.3042  18.1588 0008256 210.6437 149.4239 13.84284244 37583
PRAETORIAN SDA_608      
1 65571U 25203G   26160.05032722  .00000073  00000+0  54860-4 0  9998
2 65571  81.3011  18.3412 0005382 214.9301 145.1503 13.83816300 37560
PRAETORIAN SDA_609      
1 65572U 25203H   26160.05769579  .00000148  00000+0  12218-3 0  9999
2 65572  81.3055  18.3191 0006330 207.8019 152.2800 13.84284483 37576
PRAETORIAN SDA_610      
1 65573U 25203J   26160.10258994  .00000046  00000+0  30652-4 0  9990
2 65573  81.3013  18.2511 0006045 211.8145 148.2647 13.83851359 37579
PRAETORIAN SDA_611      
1 65574U 25203K   26160.10020147  .00000054  00000+0  38707-4 0  9996
2 65574  81.3022  18.4123 0004901 218.4875 141.5933 13.83308725 37560
PRAETORIAN SDA_612      
1 65575U 25203L   26160.09990654  .00000089  00000+0  67944-4 0  9997
2 65575  81.3035  18.0190 0008657 209.8140 150.2525 13.85038094 37594
PRAETORIAN SDA_613      
1 65576U 25203M   26160.10376811  .00000043  00000+0  28800-4 0  9991
2 65576  81.3005  18.3997 0005144 207.2992 152.7894 13.82764442 37568
PRAETORIAN SDA_614      
1 65577U 25203N   26160.08756066  .00000048  00000+0  32110-4 0  9997
2 65577  81.3019  18.1058 0006610 206.7095 153.3723 13.84777780 37599
PRAETORIAN SDA_615      
1 65578U 25203P   26160.06244766  .00000207  00000+0  17403-3 0  9999
2 65578  81.3027  18.0880 0008478 208.6209 151.4483 13.84435865 37589
PRAETORIAN SDA_616      
1 65579U 25203Q   26160.09917351  .00000088  00000+0  69174-4 0  9990
2 65579  81.3069  18.5532 0004836 216.4000 143.6828 13.83267111 37565
PRAETORIAN SDA_617      
1 65580U 25203R   26160.04775062  .00000046  00000+0  31279-4 0  9997
2 65580  81.3041  18.4326 0006833 207.5393 152.5402 13.83149913 37568
PRAETORIAN SDA_618      
1 65581U 25203S   26160.10212456  .00000179  00000+0  14848-3 0  9997
2 65581  81.3028  17.9843 0009154 210.7419 149.3203 13.84667811 37595
PRAETORIAN SDA_619      
1 65582U 25203T   26160.06072545  .00000186  00000+0  15770-3 0  9999
2 65582  81.3049  18.3068 0007612 208.7113 151.3625 13.83805034 38208
PRAETORIAN SDA_620      
1 65583U 25203U   26160.08761512  .00000057  00000+0  40944-4 0  9990
2 65583  81.3036  18.3013 0007092 203.7680 156.3150 13.83617508 37575
PRAETORIAN SDA_621      
1 65584U 25203V   26160.06247293  .00000075  00000+0  57103-4 0  9999
2 65584  81.3026  18.2457 0006925 201.5318 158.5548 13.83800744 37575
PRAETORIAN SDA_601      
1 65585U 25203W   26160.10172346  .00000089  00000+0  70535-4 0  9990
2 65585  81.3051  18.4968 0004829 220.4487 139.6310 13.83167198 37566
